25943,GLOBALSTAR M057,1999,117.57,-1.0,-,52.0,Inactive,0,LEO,Kazakhstan,Globalstar,Unknown,Unknown,Unknown,1 25943U 99058A   24091.88186808 -.00000068  00000+0  22932-3 0  9992,2 25943  51.9972 163.4161 0002825 173.7832 186.3053 12.24782781112730,12.24782781,0.0002825,LEO
25944,GLOBALSTAR M059,1999,120.0,-1.0,-,52.0,Inactive,0,LEO,Kazakhstan,Globalstar,Unknown,Unknown,Unknown,1 25944U 99058B   24091.95713976 -.00000113  00000+0 -32632-3 0  9993,2 25944  52.0038 323.5278 0000912 106.3631 356.4732 11.99961628520959,11.99961628,9.12e-05,LEO
25945,GLOBALSTAR M056,1999,119.52,-1.0,-,52.0,Inactive,0,LEO,Kazakhstan,Globalstar,Unknown,Unknown,Unknown,1 25945U 99058C   24091.96004112 -.00000061  00000+0  30914-3 0  9992,2 25945  51.9991 336.8383 0001547  37.6698 337.3367 12.04772712109321,12.04772712,0.0001547,LEO
25946,GLOBALSTAR M031,1999,118.42,-1.0,-,51.99,Inactive,0,LEO,Kazakhstan,Globalstar,Unknown,Unknown,Unknown,1 25946U 99058D   24091.88039674  .00000023  00000+0  11477-2 0  9994,2 25946  51.9947 255.8495 0001489  34.0507 113.6545 12.16004969110737,12.16004969,0.0001489,LEO
25961,GLOBALSTAR M039,1999,114.08,-1.0,-,51.98,Inactive,0,LEO,Kazakhstan,Globalstar,Unknown,Unknown,Unknown,1 25961U 99062A   24091.93695116 -.00000065  00000+0  21754-3 0  9998,2 25961  51.9837 175.6797 0003205  93.9617 266.1616 12.62285794124365,12.62285794,0.0003205,LEO
25962,GLOBALSTAR M034,1999,122.09,-1.0,-,51.99,Inactive,0,LEO,Kazakhstan,Globalstar,Unknown,Unknown,Unknown,1 25962U 99062B   24091.75700274 -.00000075  00000+0  84701-4 0  9994,2 25962  51.9860  81.4246 0013970 286.0399 246.1409 11.79426110 86188,11.7942611,0.001397,LEO
25963,GLOBALSTAR M029,1999,120.01,-1.0,-,51.98,Inactive,0,LEO,Kazakhstan,Globalstar,Unknown,Unknown,Unknown,1 25963U 99062C   24092.03537373 -.00000065  00000+0  26329-3 0  9995,2 25963  51.9792 211.7300 0001957 338.4294 193.3034 11.99875794116099,11.99875794,0.0001957,LEO
25964,GLOBALSTAR M061,1999,122.37,-1.0,-,51.98,Inactive,0,LEO,Kazakhstan,Globalstar,Unknown,Unknown,Unknown,1 25964U 99062D   24091.73930263 -.00000052  00000+0  45695-3 0  9990,2 25964  51.9778 259.6465 0005839 205.3426 167.4773 11.76759151 69091,11.76759151,0.0005839,LEO
